[{"OBJECT_NAME":"RESURS-P 5","OBJECT_ID":"2024-250A","EPOCH":"2026-03-09T23:31:56.908992","MEAN_MOTION":15.32839945,"ECCENTRICITY":0.00026027,"INCLINATION":97.276,"RA_OF_ASC_NODE":355.9792,"ARG_OF_PERICENTER":63.1234,"MEAN_ANOMALY":297.0274,"EPHEMERIS_TYPE":0,"CLASSIFICATION_TYPE":"U","NORAD_CAT_ID":62430,"ELEMENT_SET_NO":999,"REV_AT_EPOCH":6735,"BSTAR":0.00015600887,"MEAN_MOTION_DOT":4.871e-5,"MEAN_MOTION_DDOT":0},{"OBJECT_NAME":"STARLINK-35802","OBJECT_ID":"2025-247AA","EPOCH":"2026-03-09T14:34:30.306144","MEAN_MOTION":15.30201194,"ECCENTRICITY":0.0001882,"INCLINATION":53.1598,"RA_OF_ASC_NODE":191.636,"ARG_OF_PERICENTER":32.231,"MEAN_ANOMALY":327.8805,"EPHEMERIS_TYPE":0,"CLASSIFICATION_TYPE":"U","NORAD_CAT_ID":66289,"ELEMENT_SET_NO":999,"REV_AT_EPOCH":2102,"BSTAR":0.0011903,"MEAN_MOTION_DOT":0.00035061,"MEAN_MOTION_DDOT":0}]
